APRIZESAT 2             
1 28366U 04025A   23263.35240054  .00000292  00000+0  10523-3 0  9991
2 28366  98.1055 112.4693 0107901  31.2110 329.5425 14.37069405  7867
SAUDICOMSAT 1           
1 28369U 04025D   23262.66467712  .00000767  00000+0  19460-3 0  9995
2 28369  98.5025 234.0953 0032452 207.5669 152.3806 14.53415515 18598
SAUDICOMSAT 2           
1 28370U 04025E   23262.66972186  .00000825  00000+0  22909-3 0  9990
2 28370  98.5948 234.2691 0058205  52.0716 308.5717 14.48226094 15101
APRIZESAT 1             
1 28372U 04025G   23262.90425528  .00000685  00000+0  18596-3 0  9993
2 28372  98.5560 234.1987 0044894 319.9405  39.8480 14.50262575 16737
NANOSAT-1               
1 28493U 04049B   23263.25312867  .00002064  00000+0  31264-3 0  9993
2 28493  98.1296  10.0556 0003104 260.4039  99.6819 14.75257173  7632
SAUDICOMSAT 7           
1 31119U 07012C   23263.39882021  .00001373  00000+0  27083-3 0  9990
2 31119  98.2369 211.6829 0060235  91.4285 269.3818 14.62952834875986
SAUDICOMSAT 6           
1 31121U 07012E   23263.41073328  .00000964  00000+0  20503-3 0  9993
2 31121  98.2722 206.7598 0074656 201.1414 158.6696 14.59672512874099
SAUDICOMSAT 5           
1 31124U 07012H   23263.11983354  .00001586  00000+0  30130-3 0  9990
2 31124  98.2073 212.5883 0051400  35.0310 325.4256 14.64750282876921
SAUDICOMSAT 3           
1 31125U 07012J   23262.79326691  .00001801  00000+0  32833-3 0  9991
2 31125  98.1737 213.2501 0041638 337.6564  22.2825 14.66726979877885
SAUDICOMSAT 4           
1 31127U 07012L   23262.84789359  .00001043  00000+0  21389-3 0  9995
2 31127  98.2580 209.6261 0067428 144.6909 215.8785 14.61440365875015
APRIZESAT 4             
1 35684U 09041D   23263.09187369  .00001237  00000+0  16623-3 0  9992
2 35684  98.2774 296.9282 0045034 317.1199  42.6503 14.80577274763102
APRIZESAT 3             
1 35686U 09041F   23263.26332963  .00003030  00000+0  30896-3 0  9996
2 35686  98.1026   5.2994 0070924 121.4197 239.3980 14.89598171767065
AISSAT 1                
1 36797U 10035C   23262.80041766  .00003391  00000+0  36459-3 0  9993
2 36797  98.2183 109.1286 0011790 110.6812 249.5669 14.89201425714884
S-NET D                 
1 43186U 18014G   23262.32466653  .00005681  00000+0  44679-3 0  9998
2 43186  97.6127 164.3068 0012390 210.1232 149.9281 15.01179142307678
S-NET B                 
1 43187U 18014H   23263.25929193  .00005993  00000+0  47093-3 0  9994
2 43187  97.6128 165.1490 0012753 204.6706 155.3910 15.01188265307817
S-NET A                 
1 43188U 18014J   23263.32590354  .00005915  00000+0  46477-3 0  9995
2 43188  97.6132 165.3086 0012765 204.5175 155.5443 15.01191728307820
S-NET C                 
1 43189U 18014K   23263.19530573  .00006058  00000+0  47593-3 0  9997
2 43189  97.6143 165.0690 0013350 200.8416 159.2265 15.01186472306359
SALSAT                  
1 46495U 20068K   23262.79683227  .00007560  00000+0  48497-3 0  9995
2 46495  97.7782 211.8975 0016037 151.6128 208.5977 15.08685335163332
